norad_id,name,regime,epoch,line1,line2,inclination,eccentricity,mean_motion,raan,arg_pericenter,mean_anomaly
20083,RADUGA 1-1,EGO,02282.32682525,1 20083U 89048A   02282.32682525 -.00000044 +00000-0 +10000-3 0 0010\,2 20083 008.3121 049.4523 0018695 289.3653 070.4374 00.9870666804587,8.3121,0.0018695,0.98706668,49.4523,289.3653,70.4374
20083,RADUGA 1-1,EGO,02284.35295221,1 20083U 89048A   02284.35295221 -.00000008 +00000-0 +10000-3 0 0011\,2 20083 008.3155 049.4402 0018677 289.1864 070.6070 00.9870635404589,8.3155,0.0018677,0.98706354,49.4402,289.1864,70.607
20083,RADUGA 1-1,EGO,02285.36603641,1 20083U 89048A   02285.36603641 +.00000005 +00000-0 +10000-3 0 0012\,2 20083 008.3172 049.4348 0018664 289.1848 070.6102 00.9870629604590,8.3172,0.0018664,0.98706296,49.4348,289.1848,70.6102
20083,RADUGA 1-1,EGO,02286.37912869,1 20083U 89048A   02286.37912869 +.00000015 +00000-0 +10000-3 0 0012\,2 20083 008.3189 049.4294 0018652 289.1926 070.6069 00.9870630704591,8.3189,0.0018652,0.98706307,49.4294,289.1926,70.6069
20083,RADUGA 1-1,EGO,02296.50964051,1 20083U 89048A   02296.50964051 -.00000106 +00000-0 +10000-3 0 0013\,2 20083 008.3365 049.3723 0018175 290.1944 069.5726 00.9870947404601,8.3365,0.0018175,0.98709474,49.3723,290.1944,69.5726
20083,RADUGA 1-1,EGO,02297.52265200,1 20083U 89048A   02297.52265200 -.00000135 +00000-0 +10000-3 0 0014\,2 20083 008.3385 049.3664 0018156 290.2093 069.5486 00.9870985804602,8.3385,0.0018156,0.98709858,49.3664,290.2093,69.5486
20083,RADUGA 1-1,EGO,02302.58785279,1 20083U 89048A   02302.58785279 -.00000246 +00000-0 +10000-3 0 0014\,2 20083 008.3471 049.3397 0018166 290.4009 069.3705 00.9871075704607,8.3471,0.0018166,0.98710757,49.3397,290.4009,69.3705
20083,RADUGA 1-1,EGO,02303.60088482,1 20083U 89048A   02303.60088482 -.00000254 +00000-0 +10000-3 0 0015\,2 20083 008.3488 049.3349 0018176 290.4509 069.3215 00.9871066904608,8.3488,0.0018176,0.98710669,49.3349,290.4509,69.3215
20083,RADUGA 1-1,EGO,02313.73119705,1 20083U 89048A   02313.73119705 -.00000052 +00000-0 +10000-3 0 0015\,2 20083 008.3662 049.2834 0018404 290.4111 069.2824 00.9870649004618,8.3662,0.0018404,0.9870649,49.2834,290.4111,69.2824
20083,RADUGA 1-1,EGO,02314.74431741,1 20083U 89048A   02314.74431741 -.00000024 +00000-0 +10000-3 0 0016\,2 20083 008.3695 049.2906 0018724 290.1210 069.5674 00.9870612904619,8.3695,0.0018724,0.98706129,49.2906,290.121,69.5674
20083,RADUGA 1-1,EGO,02316.77055826,1 20083U 89048A   02316.77055826 +.00000022 +00000-0 +10000-3 0 0018\,2 20083 008.3729 049.2792 0018670 290.0008 069.7135 00.9870574304621,8.3729,0.001867,0.98705743,49.2792,290.0008,69.7135
20083,RADUGA 1-1,EGO,02327.91424651,1 20083U 89048A   02327.91424651 -.00000102  00000-0  10000-3 0   188\,2 20083 008.3916 049.2197 0018667 290.2761 069.4137 00.98709202 46321,8.3916,0.0018667,0.98709202,49.2197,290.2761,69.4137
20083,RADUGA 1-1,EGO,02327.91424914,1 20083U 89048A   02327.91424914 -.00000102 +00000-0 +10000-3 0 0019\,2 20083 008.3914 049.2185 0018804 289.1538 070.5367 00.9870919904632,8.3914,0.0018804,0.98709199,49.2185,289.1538,70.5367
20083,RADUGA 1-1,EGO,02338.04456485,1 20083U 89048A   02338.04456485 -.00000208  00000-0  10000-3 0   192\,2 20083 008.4089 049.1684 0018769 289.5711 070.0851 00.98709273 46422,8.4089,0.0018769,0.98709273,49.1684,289.5711,70.0851
20083,RADUGA 1-1,EGO,02339.05763913,1 20083U 89048A   02339.05763913 -.00000194 +00000-0 +10000-3 0 0020\,2 20083 008.4112 049.1619 0018726 289.8522 069.8136 00.9870892804643,8.4112,0.0018726,0.98708928,49.1619,289.8522,69.8136
20083,RADUGA 1-1,EGO,02340.07071271,1 20083U 89048A   02340.07071271 -.00000177 +00000-0 +10000-3 0 0020\,2 20083 008.4138 049.1575 0018716 289.8988 069.7722 00.9870855804644,8.4138,0.0018716,0.98708558,49.1575,289.8988,69.7722
20083,RADUGA 1-1,EGO,02341.08380406,1 20083U 89048A   02341.08380406 -.00000157 +00000-0 +10000-3 0 0021\,2 20083 008.4154 049.1523 0018707 289.8933 069.7895 00.9870818104645,8.4154,0.0018707,0.98708181,49.1523,289.8933,69.7895
20083,RADUGA 1-1,EGO,02341.08380810,1 20083U 89048A   02341.08380810 -.00000157 +00000-0 +10000-3 0 0022\,2 20083 008.4158 049.1547 0018709 289.9535 069.7281 00.9870817904645,8.4158,0.0018709,0.98708179,49.1547,289.9535,69.7281
20083,RADUGA 1-1,EGO,02350.20150525,1 20083U 89048A   02350.20150525  .00000043  00000-0  10000-3 0   219\,2 20083 008.4325 049.1123 0018722 290.0344 069.6654 00.98706231 46540,8.4325,0.0018722,0.98706231,49.1123,290.0344,69.6654
20083,RADUGA 1-1,EGO,02350.20151733,1 20083U 89048A   02350.20151733 +.00000043 +00000-0 +10000-3 0 0022\,2 20083 008.4327 049.1129 0018733 290.0371 069.6670 00.9870623404654,8.4327,0.0018733,0.98706234,49.1129,290.0371,69.667
20083,RADUGA 1-1,EGO,02351.21459107,1 20083U 89048A   02351.21459107 +.00000050 +00000-0 +10000-3 0 0023\,2 20083 008.4346 049.1076 0018740 290.0678 069.6352 00.9870631304655,8.4346,0.001874,0.98706313,49.1076,290.0678,69.6352
20083,RADUGA 1-1,EGO,02352.22767220,1 20083U 89048A   02352.22767220 +.00000051 +00000-0 +10000-3 0 0022\,2 20083 008.4367 049.1029 0018751 290.0555 069.6491 00.9870646104656,8.4367,0.0018751,0.98706461,49.1029,290.0555,69.6491
20083,RADUGA 1-1,EGO,02354.25385804,1 20083U 89048A   02354.25385804 +.00000037 +00000-0 +10000-3 0 0023\,2 20083 008.4403 049.0936 0018785 290.0824 069.6345 00.9870694304658,8.4403,0.0018785,0.98706943,49.0936,290.0824,69.6345
20083,RADUGA 1-1,EGO,02363.37140033,1 20083U 89048A   02363.37140033 -.00000197 +00000-0 +10000-3 0 0024\,2 20083 008.4559 049.0463 0018785 290.4809 069.2602 00.9871031204667,8.4559,0.0018785,0.98710312,49.0463,290.4809,69.2602
20083,RADUGA 1-1,EGO,02365.39746557,1 20083U 89048A   02365.39746557 -.00000242 +00000-0 +10000-3 0 0025\,2 20083 008.4600 049.0517 0019617 290.1909 069.5186 00.9871031804669,8.46,0.0019617,0.98710318,49.0517,290.1909,69.5186
20083,RADUGA 1-1,EGO,03001.41057267,1 20083U 89048A   03001.41057267 -.00000257 +00000-0 +10000-3 0 0026\,2 20083 008.4619 049.0465 0019558 290.4830 069.2532 00.9871036504670,8.4619,0.0019558,0.98710365,49.0465,290.483,69.2532
20083,RADUGA 1-1,EGO,03001.41058864,1 20083U 89048A   03001.41058864 -.00000257 +00000-0 +10000-3 0 0027\,2 20083 008.4632 049.0482 0018780 291.3554 068.3905 00.9871058104670,8.4632,0.001878,0.98710581,49.0482,291.3554,68.3905
20083,RADUGA 1-1,EGO,03002.42364849,1 20083U 89048A   03002.42364849 -.00000265 +00000-0 +10000-3 0 0028\,2 20083 008.4649 049.0427 0018780 291.3812 068.3746 00.9871049804671,8.4649,0.001878,0.98710498,49.0427,291.3812,68.3746
20083,RADUGA 1-1,EGO,03013.56738445,1 20083U 89048A   03013.56738445 -.00000010 +00000-0 +10000-3 0 0027\,2 20083 008.4836 048.9848 0018776 291.7344 068.0717 00.9870606004682,8.4836,0.0018776,0.9870606,48.9848,291.7344,68.0717
20083,RADUGA 1-1,EGO,03013.56738568,1 20083U 89048A   03013.56738568 -.00000010 +00000-0 +10000-3 0 0028\,2 20083 008.4836 048.9848 0018776 291.7344 068.0721 00.9870606004682,8.4836,0.0018776,0.9870606,48.9848,291.7344,68.0721
20083,RADUGA 1-1,EGO,03023.69829201,1 20083U 89048A   03023.69829201  .00000000  00000-0  10000-3 0   284\,2 20083 008.5005 048.9333 0018970 290.0099 069.8584 00.98704095 46920,8.5005,0.001897,0.98704095,48.9333,290.0099,69.8584
20083,RADUGA 1-1,EGO,03023.69833551,1 20083U 89048A   03023.69833551 -.00000034 +00000-0 +10000-3 0 0029\,2 20083 008.4999 048.9330 0019058 292.2630 067.6011 00.9870772404692,8.4999,0.0019058,0.98707724,48.933,292.263,67.6011
20083,RADUGA 1-1,EGO,03024.71137652,1 20083U 89048A   03024.71137652 -.00000062 +00000-0 +10000-3 0 0031\,2 20083 008.5019 048.9270 0019048 292.3730 067.4870 00.9870819704693,8.5019,0.0019048,0.98708197,48.927,292.373,67.487
20083,RADUGA 1-1,EGO,03024.71138119,1 20083U 89048A   03024.71138119 -.00000062 +00000-0 +10000-3 0 0030\,2 20083 008.5019 048.9269 0019055 292.3393 067.5219 00.9870819504693,8.5019,0.0019055,0.98708195,48.9269,292.3393,67.5219
20083,RADUGA 1-1,EGO,03025.72440635,1 20083U 89048A   03025.72440635 -.00000091 +00000-0 +10000-3 0 0030\,2 20083 008.5036 048.9215 0019047 292.3982 067.4532 00.9870864404694,8.5036,0.0019047,0.98708644,48.9215,292.3982,67.4532
20083,RADUGA 1-1,EGO,03035.85496507,1 20083U 89048A   03035.85496507 -.00000224 +00000-0 +10000-3 0 0031\,2 20083 008.5214 048.8675 0019095 292.7292 067.1754 00.9870952104704,8.5214,0.0019095,0.98709521,48.8675,292.7292,67.1754
20083,RADUGA 1-1,EGO,03036.86800152,1 20083U 89048A   03036.86800152 -.00000210 +00000-0 +10000-3 0 0032\,2 20083 008.5231 048.8618 0019095 292.7512 067.1506 00.9870922304705,8.5231,0.0019095,0.98709223,48.8618,292.7512,67.1506
20083,RADUGA 1-1,EGO,03037.88103774,1 20083U 89048A   03037.88103774 -.00000193 +00000-0 +10000-3 0 0032\,2 20083 008.5247 048.8581 0019077 292.7369 067.1600 00.9870889304706,8.5247,0.0019077,0.98708893,48.8581,292.7369,67.16
20083,RADUGA 1-1,EGO,03046.99871535,1 20083U 89048A   03046.99871535 +.00000001 +00000-0 +10000-3 0 0033\,2 20083 008.5400 048.8094 0019039 292.9068 067.0270 00.9870624804715,8.54,0.0019039,0.98706248,48.8094,292.9068,67.027
20083,RADUGA 1-1,EGO,03048.01179996,1 20083U 89048A   03048.01179996 +.00000014 +00000-0 +10000-3 0 0035\,2 20083 008.5418 048.8040 0019031 292.8464 067.0936 00.9870619304716,8.5418,0.0019031,0.98706193,48.804,292.8464,67.0936
20083,RADUGA 1-1,EGO,03049.02486970,1 20083U 89048A   03049.02486970 +.00000024 +00000-0 +10000-3 0 0034\,2 20083 008.5435 048.7996 0019322 290.8411 069.1088 00.9870655904717,8.5435,0.0019322,0.98706559,48.7996,290.8411,69.1088
20083,RADUGA 1-1,EGO,03050.03787014,1 20083U 89048A   03050.03787014 +.00000029 +00000-0 +10000-3 0 0035\,2 20083 008.5455 048.7916 0019483 293.3416 066.5720 00.9870629304718,8.5455,0.0019483,0.98706293,48.7916,293.3416,66.572
20083,RADUGA 1-1,EGO,03050.03787752,1 20083U 89048A   03050.03787752 +.00000029 +00000-0 +10000-3 0 0035\,2 20083 008.5458 048.7903 0019486 291.1027 068.8252 00.9870659704718,8.5458,0.0019486,0.98706597,48.7903,291.1027,68.8252
